CCSDS_OMM_VERS = 2.0
CREATION_DATE  = 
ORIGINATOR     = 

OBJECT_NAME    = STARLINK-35546
OBJECT_ID      = 2025-245G
CENTER_NAME    = EARTH
REF_FRAME      = TEME
TIME_SYSTEM    = UTC
MEAN_ELEMENT_THEORY = SGP/SGP4

EPOCH          = 2025-11-22T04:00:05.999040
MEAN_MOTION    = 15.49335955
ECCENTRICITY   = .0001299
INCLINATION    = 53.1608
RA_OF_ASC_NODE = 66.6277
ARG_OF_PERICENTER = 101.3048
MEAN_ANOMALY   = 48.3764

EPHEMERIS_TYPE = 0
CLASSIFICATION_TYPE = U
NORAD_CAT_ID   = 66240
ELEMENT_SET_NO = 999
REV_AT_EPOCH   = 479
BSTAR          = -.10129E-2
MEAN_MOTION_DOT = -.56433E-3
MEAN_MOTION_DDOT = 0

CCSDS_OMM_VERS = 2.0
CREATION_DATE  = 
ORIGINATOR     = 

OBJECT_NAME    = STARLINK-35497
OBJECT_ID      = 2025-245H
CENTER_NAME    = EARTH
REF_FRAME      = TEME
TIME_SYSTEM    = UTC
MEAN_ELEMENT_THEORY = SGP/SGP4

EPOCH          = 2025-11-22T04:00:05.999040
MEAN_MOTION    = 15.49450386
ECCENTRICITY   = .0001468
INCLINATION    = 53.1607
RA_OF_ASC_NODE = 66.6239
ARG_OF_PERICENTER = 87.0732
MEAN_ANOMALY   = 64.4942

EPHEMERIS_TYPE = 0
CLASSIFICATION_TYPE = U
NORAD_CAT_ID   = 66241
ELEMENT_SET_NO = 999
REV_AT_EPOCH   = 474
BSTAR          = -.36401E-2
MEAN_MOTION_DOT = -.198831E-2
MEAN_MOTION_DDOT = 0

CCSDS_OMM_VERS = 2.0
CREATION_DATE  = 
ORIGINATOR     = 

OBJECT_NAME    = STARLINK-35480
OBJECT_ID      = 2025-245J
CENTER_NAME    = EARTH
REF_FRAME      = TEME
TIME_SYSTEM    = UTC
MEAN_ELEMENT_THEORY = SGP/SGP4

EPOCH          = 2025-11-22T04:00:05.999040
MEAN_MOTION    = 15.49307456
ECCENTRICITY   = .0000774
INCLINATION    = 53.1606
RA_OF_ASC_NODE = 66.6121
ARG_OF_PERICENTER = 82.1604
MEAN_ANOMALY   = 75.2020

EPHEMERIS_TYPE = 0
CLASSIFICATION_TYPE = U
NORAD_CAT_ID   = 66242
ELEMENT_SET_NO = 999
REV_AT_EPOCH   = 479
BSTAR          = -.22948E-3
MEAN_MOTION_DOT = -.13188E-3
MEAN_MOTION_DDOT = 0

CCSDS_OMM_VERS = 2.0
CREATION_DATE  = 
ORIGINATOR     = 

OBJECT_NAME    = STARLINK-35495
OBJECT_ID      = 2025-245K
CENTER_NAME    = EARTH
REF_FRAME      = TEME
TIME_SYSTEM    = UTC
MEAN_ELEMENT_THEORY = SGP/SGP4

EPOCH          = 2025-11-22T04:00:05.999040
MEAN_MOTION    = 15.49344620
ECCENTRICITY   = .0001198
INCLINATION    = 53.1607
RA_OF_ASC_NODE = 66.6204
ARG_OF_PERICENTER = 87.8537
MEAN_ANOMALY   = 65.6544

EPHEMERIS_TYPE = 0
CLASSIFICATION_TYPE = U
NORAD_CAT_ID   = 66243
ELEMENT_SET_NO = 999
REV_AT_EPOCH   = 479
BSTAR          = -.12329E-2
MEAN_MOTION_DOT = -.68503E-3
MEAN_MOTION_DDOT = 0

CCSDS_OMM_VERS = 2.0
CREATION_DATE  = 
ORIGINATOR     = 

OBJECT_NAME    = STARLINK-35517
OBJECT_ID      = 2025-245L
CENTER_NAME    = EARTH
REF_FRAME      = TEME
TIME_SYSTEM    = UTC
MEAN_ELEMENT_THEORY = SGP/SGP4

EPOCH          = 2025-11-21T00:00:02.000160
MEAN_MOTION    = 15.49247493
ECCENTRICITY   = .00013711
INCLINATION    = 53.1606
RA_OF_ASC_NODE = 72.1944
ARG_OF_PERICENTER = 97.9214
MEAN_ANOMALY   = 26.4126

EPHEMERIS_TYPE = 0
CLASSIFICATION_TYPE = U
NORAD_CAT_ID   = 66244
ELEMENT_SET_NO = 999
REV_AT_EPOCH   = 439
BSTAR          = .6063678E-3
MEAN_MOTION_DOT = .33346E-3
MEAN_MOTION_DDOT = 0

CCSDS_OMM_VERS = 2.0
CREATION_DATE  = 
ORIGINATOR     = 

OBJECT_NAME    = STARLINK-35503
OBJECT_ID      = 2025-245M
CENTER_NAME    = EARTH
REF_FRAME      = TEME
TIME_SYSTEM    = UTC
MEAN_ELEMENT_THEORY = SGP/SGP4

EPOCH          = 2025-11-22T04:00:05.999040
MEAN_MOTION    = 15.49238551
ECCENTRICITY   = .000077
INCLINATION    = 53.1607
RA_OF_ASC_NODE = 66.6062
ARG_OF_PERICENTER = 77.8076
MEAN_ANOMALY   = 81.4974

EPHEMERIS_TYPE = 0
CLASSIFICATION_TYPE = U
NORAD_CAT_ID   = 66245
ELEMENT_SET_NO = 999
REV_AT_EPOCH   = 474
BSTAR          = .18532E-2
MEAN_MOTION_DOT = .103742E-2
MEAN_MOTION_DDOT = 0

CCSDS_OMM_VERS = 2.0
CREATION_DATE  = 
ORIGINATOR     = 

OBJECT_NAME    = STARLINK-35434
OBJECT_ID      = 2025-245N
CENTER_NAME    = EARTH
REF_FRAME      = TEME
TIME_SYSTEM    = UTC
MEAN_ELEMENT_THEORY = SGP/SGP4

EPOCH          = 2025-11-22T04:00:05.999040
MEAN_MOTION    = 15.49237137
ECCENTRICITY   = .0000765
INCLINATION    = 53.1607
RA_OF_ASC_NODE = 66.6017
ARG_OF_PERICENTER = 84.9054
MEAN_ANOMALY   = 76.3184

EPHEMERIS_TYPE = 0
CLASSIFICATION_TYPE = U
NORAD_CAT_ID   = 66246
ELEMENT_SET_NO = 999
REV_AT_EPOCH   = 458
BSTAR          = .18657E-2
MEAN_MOTION_DOT = .104445E-2
MEAN_MOTION_DDOT = 0

CCSDS_OMM_VERS = 2.0
CREATION_DATE  = 
ORIGINATOR     = 

OBJECT_NAME    = STARLINK-35481
OBJECT_ID      = 2025-245P
CENTER_NAME    = EARTH
REF_FRAME      = TEME
TIME_SYSTEM    = UTC
MEAN_ELEMENT_THEORY = SGP/SGP4

EPOCH          = 2025-11-22T04:00:05.999040
MEAN_MOTION    = 15.49307126
ECCENTRICITY   = .000077
INCLINATION    = 53.1606
RA_OF_ASC_NODE = 66.5984
ARG_OF_PERICENTER = 75.8451
MEAN_ANOMALY   = 87.2675

EPHEMERIS_TYPE = 0
CLASSIFICATION_TYPE = U
NORAD_CAT_ID   = 66247
ELEMENT_SET_NO = 999
REV_AT_EPOCH   = 479
BSTAR          = -.19173E-3
MEAN_MOTION_DOT = -.11095E-3
MEAN_MOTION_DDOT = 0

CCSDS_OMM_VERS = 2.0
CREATION_DATE  = 
ORIGINATOR     = 

OBJECT_NAME    = STARLINK-35416
OBJECT_ID      = 2025-245Q
CENTER_NAME    = EARTH
REF_FRAME      = TEME
TIME_SYSTEM    = UTC
MEAN_ELEMENT_THEORY = SGP/SGP4

EPOCH          = 2025-11-22T04:00:05.999040
MEAN_MOTION    = 15.49279593
ECCENTRICITY   = .0001181
INCLINATION    = 53.1606
RA_OF_ASC_NODE = 66.5952
ARG_OF_PERICENTER = 107.4934
MEAN_ANOMALY   = 57.5522

EPHEMERIS_TYPE = 0
CLASSIFICATION_TYPE = U
NORAD_CAT_ID   = 66248
ELEMENT_SET_NO = 999
REV_AT_EPOCH   = 474
BSTAR          = .54685E-3
MEAN_MOTION_DOT = .30051E-3
MEAN_MOTION_DDOT = 0

CCSDS_OMM_VERS = 2.0
CREATION_DATE  = 
ORIGINATOR     = 

OBJECT_NAME    = STARLINK-35304
OBJECT_ID      = 2025-245R
CENTER_NAME    = EARTH
REF_FRAME      = TEME
TIME_SYSTEM    = UTC
MEAN_ELEMENT_THEORY = SGP/SGP4

EPOCH          = 2025-11-22T04:00:05.999040
MEAN_MOTION    = 15.49336083
ECCENTRICITY   = .0001206
INCLINATION    = 53.1606
RA_OF_ASC_NODE = 66.5829
ARG_OF_PERICENTER = 82.5162
MEAN_ANOMALY   = 88.2478

EPHEMERIS_TYPE = 0
CLASSIFICATION_TYPE = U
NORAD_CAT_ID   = 66249
ELEMENT_SET_NO = 999
REV_AT_EPOCH   = 458
BSTAR          = -.98386E-3
MEAN_MOTION_DOT = -.54836E-3
MEAN_MOTION_DDOT = 0

CCSDS_OMM_VERS = 2.0
CREATION_DATE  = 
ORIGINATOR     = 

OBJECT_NAME    = STARLINK-35338
OBJECT_ID      = 2025-245S
CENTER_NAME    = EARTH
REF_FRAME      = TEME
TIME_SYSTEM    = UTC
MEAN_ELEMENT_THEORY = SGP/SGP4

EPOCH          = 2025-11-22T04:00:05.999040
MEAN_MOTION    = 15.49276109
ECCENTRICITY   = .0001276
INCLINATION    = 53.1605
RA_OF_ASC_NODE = 66.5908
ARG_OF_PERICENTER = 102.2523
MEAN_ANOMALY   = 64.5772

EPHEMERIS_TYPE = 0
CLASSIFICATION_TYPE = U
NORAD_CAT_ID   = 66250
ELEMENT_SET_NO = 999
REV_AT_EPOCH   = 469
BSTAR          = .1814E-2
MEAN_MOTION_DOT = .101645E-2
MEAN_MOTION_DDOT = 0

CCSDS_OMM_VERS = 2.0
CREATION_DATE  = 
ORIGINATOR     = 

OBJECT_NAME    = STARLINK-35485
OBJECT_ID      = 2025-245T
CENTER_NAME    = EARTH
REF_FRAME      = TEME
TIME_SYSTEM    = UTC
MEAN_ELEMENT_THEORY = SGP/SGP4

EPOCH          = 2025-11-22T04:00:05.999040
MEAN_MOTION    = 15.49264901
ECCENTRICITY   = .0001347
INCLINATION    = 53.1605
RA_OF_ASC_NODE = 66.5870
ARG_OF_PERICENTER = 101.1754
MEAN_ANOMALY   = 67.5918

EPHEMERIS_TYPE = 0
CLASSIFICATION_TYPE = U
NORAD_CAT_ID   = 66251
ELEMENT_SET_NO = 999
REV_AT_EPOCH   = 458
BSTAR          = .18195E-2
MEAN_MOTION_DOT = .101914E-2
MEAN_MOTION_DDOT = 0

