STARLINK-35546          
1 66240U 25245G   25326.16673610 -.00056433  00000+0 -10129-2 0  9991
2 66240  53.1608  66.6277 0001299 101.3048  48.3764 15.49335955  4796
STARLINK-35497          
1 66241U 25245H   25326.16673610 -.00198831  00000+0 -36401-2 0  9992
2 66241  53.1607  66.6239 0001468  87.0732  64.4942 15.49450386  4740
STARLINK-35480          
1 66242U 25245J   25326.16673610 -.00013188  00000+0 -22948-3 0  9996
2 66242  53.1606  66.6121 0000774  82.1604  75.2020 15.49307456  4794
STARLINK-35495          
1 66243U 25245K   25326.16673610 -.00068503  00000+0 -12329-2 0  9999
2 66243  53.1607  66.6204 0001198  87.8537  65.6544 15.49344620  4794
STARLINK-35517          
1 66244U 25245L   25325.00002315  .00033346  00000+0  60637-3 0  9991
2 66244  53.1606  72.1944 0001371  97.9214  26.4126 15.49247493  4391
STARLINK-35503          
1 66245U 25245M   25326.16673610  .00103742  00000+0  18532-2 0  9996
2 66245  53.1607  66.6062 0000770  77.8076  81.4974 15.49238551  4743
STARLINK-35434          
1 66246U 25245N   25326.16673610  .00104445  00000+0  18657-2 0  9996
2 66246  53.1607  66.6017 0000765  84.9054  76.3184 15.49237137  4580
STARLINK-35481          
1 66247U 25245P   25326.16673610 -.00011095  00000+0 -19173-3 0  9992
2 66247  53.1606  66.5984 0000770  75.8451  87.2675 15.49307126  4793
STARLINK-35416          
1 66248U 25245Q   25326.16673610  .00030051  00000+0  54685-3 0  9991
2 66248  53.1606  66.5952 0001181 107.4934  57.5522 15.49279593  4746
STARLINK-35304          
1 66249U 25245R   25326.16673610 -.00054836  00000+0 -98386-3 0  9997
2 66249  53.1606  66.5829 0001206  82.5162  88.2478 15.49336083  4585
STARLINK-35338          
1 66250U 25245S   25326.16673610  .00101645  00000+0  18140-2 0  9997
2 66250  53.1605  66.5908 0001276 102.2523  64.5772 15.49276109  4690
STARLINK-35485          
1 66251U 25245T   25326.16673610  .00101914  00000+0  18195-2 0  9997
2 66251  53.1605  66.5870 0001347 101.1754  67.5918 15.49264901  4582
